STARLINK-2620           
1 48453U 21040AB  26068.61827280  .00013618  00000+0  47094-3 0  9992
2 48453  53.1616 178.4535 0002071  50.3086 309.8098 15.30208340266673
NUSAT-48 (HENRIETTA LE*)
1 60498U 24149AG  26068.80506098  .00012988  00000+0  45212-3 0  9999
2 60498  97.3923 150.8264 0002754 263.3026  96.7901 15.29812597 86946
